OBJECT_NAME,OBJECT_ID,EPOCH,MEAN_MOTION,ECCENTRICITY,INCLINATION,RA_OF_ASC_NODE,ARG_OF_PERICENTER,MEAN_ANOMALY,EPHEMERIS_TYPE,CLASSIFICATION_TYPE,NORAD_CAT_ID,ELEMENT_SET_NO,REV_AT_EPOCH,BSTAR,MEAN_MOTION_DOT,MEAN_MOTION_DDOT
INMARSAT GX5,2019-080B,2026-06-17T21:34:29.769024,1.00273296,.00023078,0.0345,358.1902,104.1220,138.4984,0,U,44801,999,679,0,.7E-6,0
JCSAT-18 (KACIFIC 1),2019-091A,2026-06-17T18:48:50.759712,1.00272938,.00002867,0.0362,215.1186,105.3372,17.7754,0,U,44868,999,2401,0,-.206E-5,0
ELEKTRO-L 3,2019-095A,2026-06-17T21:53:06.004320,1.00271362,.00009364,0.2594,81.4838,352.3105,236.5939,0,U,44903,999,2371,0,-.102E-5,0
SHIJIAN-20 (SJ-20),2019-097A,2026-06-17T06:20:14.312256,1.00273013,.0014479,4.9197,75.0598,55.6109,274.8205,0,U,44910,999,2369,0,.128E-5,0
TJS-5,2020-002A,2026-06-17T15:34:58.559232,1.00268310,.0007308,0.0129,326.1075,80.2830,200.7360,0,U,44978,999,2371,0,-.347E-5,0
GSAT-30,2020-005A,2026-06-17T09:56:28.523328,1.00270994,.00033736,0.0740,95.6947,349.5029,52.5749,0,U,45026,999,2351,0,-.169E-5,0
EUTELSAT KONNECT,2020-005B,2026-06-16T18:10:53.163264,1.00272204,.000147,0.0717,96.7174,123.4907,324.7594,0,U,45027,999,2433,0,.47E-6,0
JCSAT-17,2020-013A,2026-06-17T22:10:11.865216,1.00271229,.00025161,5.3923,356.8872,86.5828,291.2688,0,U,45245,999,2324,0,-.322E-5,0
GEO-KOMPSAT-2B,2020-013B,2026-06-17T22:07:57.080352,1.00269562,.00007579,0.0470,198.7959,69.7327,97.8885,0,U,45246,999,2328,0,-.349E-5,0
BEIDOU-3 G2,2020-017A,2026-06-17T21:54:13.396320,1.00271827,.00020199,2.8658,47.3596,32.8793,234.5567,0,U,45344,999,2326,0,-.147E-5,0
AEHF-6 (USA 298),2020-022B,2026-06-17T22:10:49.304928,1.00271051,.00431351,2.5460,301.1763,17.0458,58.4306,0,U,45465,999,2302,0,-.303E-5,0
BEIDOU-3 G3,2020-040A,2026-06-17T22:02:57.558336,1.00266016,.00023676,2.4493,67.4422,335.7723,304.1747,0,U,45807,999,2207,0,-.36E-5,0
APSTAR-6D,2020-045A,2026-06-17T19:11:48.112224,1.00274698,.0002541,0.0483,93.7080,350.1275,244.2062,0,U,45863,999,2186,0,-.322E-5,0
KOREASAT 116,2020-048A,2026-06-17T22:04:34.902624,1.00268759,.00008037,0.0204,299.1840,179.3811,234.9379,0,U,45920,999,2164,0,-.367E-5,0
EXPRESS 103,2020-053A,2026-06-17T21:58:57.940896,1.00271881,.00005142,0.0144,288.9457,3.7999,39.6584,0,U,45985,999,2165,0,-.286E-5,0
EXPRESS 80,2020-053B,2026-06-17T00:58:52.979808,1.00270093,.00017063,0.0248,316.8861,216.3063,186.8099,0,U,45986,999,2163,0,0,0
BSAT-4B,2020-056A,2026-06-17T17:20:11.655168,1.00271397,.00039615,0.0550,148.9697,325.8186,161.0598,0,U,46112,999,2139,0,-.355E-5,0
MEV-2,2020-056B,2026-06-17T21:31:07.592160,1.00273065,.00001388,0.0157,308.6447,217.6980,61.5742,0,U,46113,999,8053,0,-.16E-6,0
GALAXY 30 (G-30),2020-056C,2026-06-17T17:30:27.956736,1.00271477,.0002128,0.0146,50.6946,36.1125,316.7814,0,U,46114,999,2129,0,.32E-6,0
GAOFEN-13 01,2020-071A,2026-06-17T22:05:12.343200,1.00270163,.0041374,0.5241,84.8361,123.7116,147.1340,0,U,46610,999,2092,0,-.368E-5,0
TIANTONG-1 2,2020-082A,2026-06-17T22:07:04.664064,1.00268942,.00009797,0.7893,327.6865,106.2148,288.9591,0,U,46916,999,2066,0,-.361E-5,0
LUCAS (JDRS-1),2020-089A,2026-06-17T21:15:21.582144,1.00269643,.00022741,0.0563,273.6182,149.1509,253.0001,0,U,47202,999,2042,0,-.241E-5,0
SXM-7,2020-096A,2026-06-17T21:07:10.057728,1.00269773,.00037702,0.0325,97.6729,27.9220,12.1628,0,U,47240,999,745,0,-.21E-5,0
CMS-01,2020-099A,2026-06-17T09:56:28.523328,1.00270629,.00037451,0.0994,94.4269,181.3695,221.9783,0,U,47256,999,2020,0,-.169E-5,0
TURKSAT 5A,2021-001A,2026-06-16T23:25:29.283168,1.00271004,.00001181,0.0216,61.3987,196.0319,30.1069,0,U,47306,999,1996,0,.151E-5,0
TIANTONG-1 3,2021-003A,2026-06-17T21:54:35.860320,1.00270217,.00030092,1.7560,339.3694,112.5190,224.4517,0,U,47321,999,1996,0,-.16E-5,0
TJS-6,2021-010A,2026-06-17T18:56:57.482880,1.00269513,.00029118,0.2492,264.2466,225.4287,239.0828,0,U,47613,999,1981,0,.37E-6,0
SBIRS GEO-5 (USA 315),2021-042A,2026-06-17T15:25:29.024256,1.00270437,.0001301,5.1028,329.1386,121.0759,140.8559,0,U,48618,999,1877,0,-.272E-5,0
FENGYUN 4B,2021-047A,2026-06-17T22:01:12.725760,1.00276307,.00059511,0.1555,77.5908,275.5512,347.9645,0,U,48808,999,1857,0,-.336E-5,0
SXM-8,2021-049A,2026-06-17T21:07:10.057728,1.00270072,.00050462,0.0180,11.9454,18.6614,107.1627,0,U,48838,999,1859,0,-.211E-5,0
TIANLIAN 1-05,2021-063A,2026-06-17T21:36:07.113312,1.00271547,.00005095,1.5966,80.6998,331.6271,194.6503,0,U,49011,999,1808,0,.102E-5,0
STAR ONE D2,2021-069A,2026-06-17T05:41:07.726272,1.00268720,.0002093,0.0152,346.2449,126.0721,168.3531,0,U,49055,999,1794,0,0,0
