INMARSAT GX5            
1 44801U 19080B   26168.89895566  .00000070  00000+0  00000+0 0  9999
2 44801   0.0345 358.1902 0002307 104.1220 138.4984  1.00273296  6790
JCSAT-18 (KACIFIC 1)    
1 44868U 19091A   26168.78392083 -.00000206  00000+0  00000+0 0  9990
2 44868   0.0362 215.1186 0000286 105.3372  17.7754  1.00272938 24014
ELEKTRO-L 3             
1 44903U 19095A   26168.91187505 -.00000102  00000+0  00000+0 0  9995
2 44903   0.2594  81.4838 0000936 352.3105 236.5939  1.00271362 23713
SHIJIAN-20 (SJ-20)      
1 44910U 19097A   26168.26405454  .00000128  00000+0  00000+0 0  9996
2 44910   4.9197  75.0598 0014479  55.6109 274.8205  1.00273013 23690
TJS-5                   
1 44978U 20002A   26168.64928888 -.00000347  00000+0  00000+0 0  9995
2 44978   0.0129 326.1075 0007308  80.2830 200.7360  1.00268310 23711
GSAT-30                 
1 45026U 20005A   26168.41421902 -.00000169  00000+0  00000+0 0  9995
2 45026   0.0740  95.6947 0003373 349.5029  52.5749  1.00270994 23513
EUTELSAT KONNECT        
1 45027U 20005B   26167.75755976  .00000047  00000+0  00000+0 0  9997
2 45027   0.0717  96.7174 0001470 123.4907 324.7594  1.00272204 24331
JCSAT-17                
1 45245U 20013A   26168.92374844 -.00000322  00000+0  00000+0 0  9996
2 45245   5.3923 356.8872 0002516  86.5828 291.2688  1.00271229 23245
GEO-KOMPSAT-2B          
1 45246U 20013B   26168.92218843 -.00000349  00000+0  00000+0 0  9992
2 45246   0.0470 198.7959 0000757  69.7327  97.8885  1.00269562 23286
BEIDOU-3 G2             
1 45344U 20017A   26168.91265505 -.00000147  00000+0  00000+0 0  9997
2 45344   2.8658  47.3596 0002019  32.8793 234.5567  1.00271827 23262
AEHF-6 (USA 298)        
1 45465U 20022B   26168.92418177 -.00000303  00000+0  00000+0 0  9997
2 45465   2.5460 301.1763 0043135  17.0458  58.4306  1.00271051 23025
BEIDOU-3 G3             
1 45807U 20040A   26168.91872174 -.00000360  00000+0  00000+0 0  9990
2 45807   2.4493  67.4422 0002367 335.7723 304.1747  1.00266016 22070
APSTAR-6D               
1 45863U 20045A   26168.79986241 -.00000322  00000+0  00000+0 0  9992
2 45863   0.0483  93.7080 0002541 350.1275 244.2062  1.00274698 21869
KOREASAT 116            
1 45920U 20048A   26168.91984841 -.00000367  00000+0  00000+0 0  9996
2 45920   0.0204 299.1840 0000803 179.3811 234.9379  1.00268759 21640
EXPRESS 103             
1 45985U 20053A   26168.91594839 -.00000286  00000+0  00000+0 0  9997
2 45985   0.0144 288.9457 0000514   3.7999  39.6584  1.00271881 21659
EXPRESS 80              
1 45986U 20053B   26168.04089097  .00000000  00000+0  00000+0 0  9990
2 45986   0.0248 316.8861 0001706 216.3063 186.8099  1.00270093 21631
BSAT-4B                 
1 46112U 20056A   26168.72235712 -.00000355  00000+0  00000+0 0  9991
2 46112   0.0550 148.9697 0003961 325.8186 161.0598  1.00271397 21397
MEV-2                   
1 46113U 20056B   26168.89661565 -.00000016  00000+0  00000+0 0  9993
2 46113   0.0157 308.6447 0000138 217.6980  61.5742  1.00273065 80532
GALAXY 30 (G-30)        
1 46114U 20056C   26168.72949024  .00000032  00000+0  00000+0 0  9992
2 46114   0.0146  50.6946 0002128  36.1125 316.7814  1.00271477 21293
GAOFEN-13 01            
1 46610U 20071A   26168.92028175 -.00000368  00000+0  00000+0 0  9990
2 46610   0.5241  84.8361 0041374 123.7116 147.1340  1.00270163 20924
TIANTONG-1 2            
1 46916U 20082A   26168.92158176 -.00000361  00000+0  00000+0 0  9999
2 46916   0.7893 327.6865 0000979 106.2148 288.9591  1.00268942 20667
LUCAS (JDRS-1)          
1 47202U 20089A   26168.88566646 -.00000241  00000+0  00000+0 0  9992
2 47202   0.0563 273.6182 0002274 149.1509 253.0001  1.00269643 20424
SXM-7                   
1 47240U 20096A   26168.87997752 -.00000210  00000+0  00000+0 0  9993
2 47240   0.0325  97.6729 0003770  27.9220  12.1628  1.00269773  7459
CMS-01                  
1 47256U 20099A   26168.41421902 -.00000169  00000+0  00000+0 0  9995
2 47256   0.0994  94.4269 0003745 181.3695 221.9783  1.00270629 20207
TURKSAT 5A              
1 47306U 21001A   26167.97603337  .00000151  00000+0  00000+0 0  9999
2 47306   0.0216  61.3987 0000118 196.0319  30.1069  1.00271004 19963
TIANTONG-1 3            
1 47321U 21003A   26168.91291505 -.00000160  00000+0  00000+0 0  9994
2 47321   1.7560 339.3694 0003009 112.5190 224.4517  1.00270217 19966
TJS-6                   
1 47613U 21010A   26168.78955420  .00000037  00000+0  00000+0 0  9996
2 47613   0.2492 264.2466 0002911 225.4287 239.0828  1.00269513 19811
SBIRS GEO-5 (USA 315)   
1 48618U 21042A   26168.64269704 -.00000272  00000+0  00000+0 0  9997
2 48618   5.1028 329.1386 0001301 121.0759 140.8559  1.00270437 18776
FENGYUN 4B              
1 48808U 21047A   26168.91750840 -.00000336  00000+0  00000+0 0  9990
2 48808   0.1555  77.5908 0005951 275.5512 347.9645  1.00276307 18574
SXM-8                   
1 48838U 21049A   26168.87997752 -.00000211  00000+0  00000+0 0  9997
2 48838   0.0180  11.9454 0005046  18.6614 107.1627  1.00270072 18593
TIANLIAN 1-05           
1 49011U 21063A   26168.90008233  .00000102  00000+0  00000+0 0  9996
2 49011   1.5966  80.6998 0000509 331.6271 194.6503  1.00271547 18083
STAR ONE D2             
1 49055U 21069A   26168.23689498  .00000000  00000+0  00000+0 0  9991
2 49055   0.0152 346.2449 0002093 126.0721 168.3531  1.00268720 17942
